OBJECT_NAME,OBJECT_ID,EPOCH,MEAN_MOTION,ECCENTRICITY,INCLINATION,RA_OF_ASC_NODE,ARG_OF_PERICENTER,MEAN_ANOMALY,EPHEMERIS_TYPE,CLASSIFICATION_TYPE,NORAD_CAT_ID,ELEMENT_SET_NO,REV_AT_EPOCH,BSTAR,MEAN_MOTION_DOT,MEAN_MOTION_DDOT
STARLINK-30359,2023-134J,2025-10-30T16:44:44.756736,15.02543078,.0001284,43.0021,171.3248,274.1174,85.9521,0,U,57779,999,12006,.75355109E-4,.815E-5,0
STARLINK-30380,2023-134K,2025-10-30T23:45:26.624736,15.02534984,.00012015,43.0026,182.0280,270.2190,89.8515,0,U,57780,999,11996,.55787468E-4,.55E-5,0
STARLINK-30369,2023-134L,2025-10-31T00:19:00.218208,15.02553870,.00010828,43.0026,182.2000,267.2313,92.8405,0,U,57781,999,11996,-.22924711E-3,-.33E-4,0
STARLINK-30376,2023-134M,2025-10-30T23:50:14.379936,15.02536349,.00010861,43.0033,182.0617,265.5179,94.5540,0,U,57782,999,11996,.76056346E-4,.824E-5,0
STARLINK-30389,2023-134N,2025-10-31T00:09:26.306208,15.02482904,.00007749,43.0006,182.1568,267.5421,92.5333,0,U,57783,999,11996,.89536404E-3,.11895E-3,0
STARLINK-30388,2023-134P,2025-10-31T00:04:37.386336,15.02535158,.00013007,43.0017,182.1329,265.8988,94.1705,0,U,57784,999,11996,.37392706E-4,.302E-5,0
STARLINK-30381,2023-134Q,2025-10-30T17:08:07.734624,15.02535864,.00012614,43.0025,183.3114,266.9221,93.1477,0,U,57785,999,11992,.65830871E-4,.686E-5,0
STARLINK-30382,2023-134R,2025-10-30T23:59:49.716672,15.02537092,.0001094,43.0026,182.1089,265.0175,95.0542,0,U,57786,999,11996,.64573046E-4,.669E-5,0
STARLINK-30378,2023-134S,2025-10-30T17:03:21.296160,15.02541062,.00009491,43.0036,183.3798,262.4523,97.6212,0,U,57787,999,11992,-.95423025E-4,-.1492E-4,0
STARLINK-30387,2023-134T,2025-10-30T15:13:38.919072,15.02535590,.00010923,43.0024,170.8603,261.6757,98.3962,0,U,57788,999,12006,.22400393E-4,.99E-6,0
STARLINK-30372,2023-134U,2025-10-31T03:04:50.763648,15.27576429,.00016483,43.0054,90.0706,272.2638,87.8025,0,U,57789,999,12105,-.75700808E-4,-.2345E-4,0
STARLINK-30367,2023-134W,2025-10-30T23:40:38.748576,15.02537411,.00008779,43.0032,182.0089,259.2641,100.8103,0,U,57791,999,11996,.95289928E-4,.1084E-4,0
STARLINK-30374,2023-138B,2025-10-30T19:16:20.817408,15.02526952,.00010452,43.0026,222.1878,275.4498,84.6225,0,U,57809,999,11917,.14205676E-4,-.12E-6,0
STARLINK-30394,2023-138C,2025-10-30T20:47:16.793376,15.02544133,.0001478,43.0006,221.8034,263.0193,97.0481,0,U,57810,999,11908,.14648099E-2,.19643E-3,0
STARLINK-30379,2023-138D,2025-10-30T20:42:26.178336,15.02553425,.00008841,43.0062,221.7785,213.4646,146.6140,0,U,57811,999,11918,.28776214E-4,.185E-5,0
STARLINK-30395,2023-138E,2025-10-30T19:01:58.596384,15.02514961,.0000755,43.0009,222.1160,281.7680,78.3078,0,U,57812,999,11917,-.19681265E-3,-.2859E-4,0
STARLINK-30403,2023-138F,2025-10-30T20:32:52.116864,15.02537587,.00010053,43.0017,221.7264,260.2249,99.8479,0,U,57813,999,11908,.9949011E-5,-.69E-6,0
STARLINK-30413,2023-138G,2025-10-30T20:04:05.871648,15.02538509,.00010064,42.9997,221.5809,280.7601,79.3128,0,U,57814,999,11918,-.4890364E-5,-.27E-5,0
STARLINK-30398,2023-138H,2025-10-30T20:28:04.408320,15.02537364,.0000992,43.0003,221.6990,248.2128,111.8609,0,U,57815,999,11908,-.12426977E-4,-.371E-5,0
STARLINK-30386,2023-138J,2025-10-31T05:57:38.945088,15.02535418,.00013806,43.0021,219.5097,256.8698,103.1990,0,U,57816,999,11906,.99187526E-4,.1136E-4,0
STARLINK-30391,2023-138K,2025-10-30T20:18:29.030976,15.02540778,.00008543,43.0015,221.6505,268.7940,91.2804,0,U,57817,999,11918,-.48598408E-4,-.86E-5,0
STARLINK-30401,2023-138L,2025-10-30T18:37:57.509184,15.02538056,.00012465,43.0019,221.9841,270.9399,89.1300,0,U,57818,999,11907,.24808887E-4,.132E-5,0
STARLINK-30390,2023-138M,2025-10-30T20:08:54.134880,15.02523496,.000095,43.0042,221.6027,256.2684,103.8053,0,U,57819,999,11912,.11959423E-3,.1412E-4,0
STARLINK-30409,2023-138N,2025-10-30T19:49:42.814272,15.02535571,.00015064,43.0042,221.4826,276.9101,83.1570,0,U,57820,999,11912,.8708955E-4,.973E-5,0
STARLINK-30415,2023-138P,2025-10-30T19:56:06.991872,15.02527597,.00014312,43.0015,221.5337,275.1850,84.8829,0,U,57821,999,11918,.13000482E-4,-.28E-6,0
STARLINK-30407,2023-138R,2025-10-30T14:48:10.872000,15.27580129,.00017776,43.0033,143.3661,272.2285,87.8363,0,U,57823,999,12007,.75373046E-4,.1812E-4,0
STARLINK-30408,2023-138S,2025-10-30T18:18:46.732032,15.02537071,.00016375,43.0020,221.8857,269.1289,90.9366,0,U,57824,999,11916,.1217485E-3,.1441E-4,0
STARLINK-30377,2023-138T,2025-10-30T17:54:48.423456,15.02535019,.00006933,43.0016,221.7631,258.4552,101.6213,0,U,57825,999,11906,.45791259E-4,.415E-5,0
STARLINK-30422,2023-138U,2025-10-30T19:35:20.080032,15.02544759,.0001287,43.0015,221.4250,281.3217,78.7481,0,U,57826,999,11917,.3967203E-5,-.15E-5,0
STARLINK-30402,2023-138V,2025-10-30T18:05:59.832672,15.02529324,.00005821,42.9935,221.8142,154.2636,205.8236,0,U,57827,999,11916,.20551305E-4,.74E-6,0
