STARLINK-30359          
1 57779U 23134J   25303.69774024  .00000815  00000+0  75355-4 0  9992
2 57779  43.0021 171.3248 0001284 274.1174  85.9521 15.02543078120068
STARLINK-30380          
1 57780U 23134K   25303.98989149  .00000550  00000+0  55787-4 0  9995
2 57780  43.0026 182.0280 0001201 270.2190  89.8515 15.02534984119963
STARLINK-30369          
1 57781U 23134L   25304.01319697 -.00003300  00000+0 -22925-3 0  9991
2 57781  43.0026 182.2000 0001082 267.2313  92.8405 15.02553870119963
STARLINK-30376          
1 57782U 23134M   25303.99322199  .00000824  00000+0  76056-4 0  9990
2 57782  43.0033 182.0617 0001086 265.5179  94.5540 15.02536349119960
STARLINK-30389          
1 57783U 23134N   25304.00655447  .00011895  00000+0  89536-3 0  9995
2 57783  43.0006 182.1568 0000774 267.5421  92.5333 15.02482904119967
STARLINK-30388          
1 57784U 23134P   25304.00321049  .00000302  00000+0  37393-4 0  9990
2 57784  43.0017 182.1329 0001300 265.8988  94.1705 15.02535158119961
STARLINK-30381          
1 57785U 23134Q   25303.71397841  .00000686  00000+0  65831-4 0  9994
2 57785  43.0025 183.3114 0001261 266.9221  93.1477 15.02535864119929
STARLINK-30382          
1 57786U 23134R   25303.99988098  .00000669  00000+0  64573-4 0  9998
2 57786  43.0026 182.1089 0001094 265.0175  95.0542 15.02537092119964
STARLINK-30378          
1 57787U 23134S   25303.71066315 -.00001492  00000+0 -95423-4 0  9993
2 57787  43.0036 183.3798 0000949 262.4523  97.6212 15.02541062119922
STARLINK-30387          
1 57788U 23134T   25303.63447823  .00000099  00000+0  22400-4 0  9997
2 57788  43.0024 170.8603 0001092 261.6757  98.3962 15.02535590120062
STARLINK-30372          
1 57789U 23134U   25304.12836532 -.00002345  00000+0 -75701-4 0  9992
2 57789  43.0054  90.0706 0001648 272.2638  87.8025 15.27576429121052
STARLINK-30367          
1 57791U 23134W   25303.98655959  .00001084  00000+0  95290-4 0  9992
2 57791  43.0032 182.0089 0000877 259.2641 100.8103 15.02537411119960
STARLINK-30374          
1 57809U 23138B   25303.80301872 -.00000012  00000+0  14206-4 0  9998
2 57809  43.0026 222.1878 0001045 275.4498  84.6225 15.02526952119178
STARLINK-30394          
1 57810U 23138C   25303.86616659  .00019643  00000+0  14648-2 0  9995
2 57810  43.0006 221.8034 0001478 263.0193  97.0481 15.02544133119086
STARLINK-30379          
1 57811U 23138D   25303.86280299  .00000185  00000+0  28776-4 0  9993
2 57811  43.0062 221.7785 0000884 213.4646 146.6140 15.02553425119181
STARLINK-30395          
1 57812U 23138E   25303.79303931 -.00002859  00000+0 -19681-3 0  9991
2 57812  43.0009 222.1160 0000755 281.7680  78.3078 15.02514961119170
STARLINK-30403          
1 57813U 23138F   25303.85615876 -.00000069  00000+0  99490-5 0  9991
2 57813  43.0017 221.7264 0001005 260.2249  99.8479 15.02537587119084
STARLINK-30413          
1 57814U 23138G   25303.83617907 -.00000270  00000+0 -48904-5 0  9996
2 57814  42.9997 221.5809 0001006 280.7601  79.3128 15.02538509119183
STARLINK-30398          
1 57815U 23138H   25303.85282880 -.00000371  00000+0 -12427-4 0  9999
2 57815  43.0003 221.6990 0000992 248.2128 111.8609 15.02537364119085
STARLINK-30386          
1 57816U 23138J   25304.24836742  .00001136  00000+0  99188-4 0  9993
2 57816  43.0021 219.5097 0001380 256.8698 103.1990 15.02535418119062
STARLINK-30391          
1 57817U 23138K   25303.84616934 -.00000860  00000+0 -48598-4 0  9992
2 57817  43.0015 221.6505 0000854 268.7940  91.2804 15.02540778119180
STARLINK-30401          
1 57818U 23138L   25303.77636006  .00000132  00000+0  24809-4 0  9996
2 57818  43.0019 221.9841 0001246 270.9399  89.1300 15.02538056119071
STARLINK-30390          
1 57819U 23138M   25303.83951545  .00001412  00000+0  11959-3 0  9995
2 57819  43.0042 221.6027 0000950 256.2684 103.8053 15.02523496119123
STARLINK-30409          
1 57820U 23138N   25303.82618998  .00000973  00000+0  87090-4 0  9999
2 57820  43.0042 221.4826 0001506 276.9101  83.1570 15.02535571119122
STARLINK-30415          
1 57821U 23138P   25303.83063648 -.00000028  00000+0  13000-4 0  9999
2 57821  43.0015 221.5337 0001431 275.1850  84.8829 15.02527597119180
STARLINK-30407          
1 57823U 23138R   25303.61679250  .00001812  00000+0  75373-4 0  9991
2 57823  43.0033 143.3661 0001777 272.2285  87.8363 15.27580129120079
STARLINK-30408          
1 57824U 23138S   25303.76304088  .00001441  00000+0  12175-3 0  9990
2 57824  43.0020 221.8857 0001637 269.1289  90.9366 15.02537071119166
STARLINK-30377          
1 57825U 23138T   25303.74639379  .00000415  00000+0  45791-4 0  9994
2 57825  43.0016 221.7631 0000693 258.4552 101.6213 15.02535019119066
STARLINK-30422          
1 57826U 23138U   25303.81620463 -.00000150  00000+0  39672-5 0  9996
2 57826  43.0015 221.4250 0001287 281.3217  78.7481 15.02544759119177
STARLINK-30402          
1 57827U 23138V   25303.75416473  .00000074  00000+0  20551-4 0  9993
2 57827  42.9935 221.8142 0000582 154.2636 205.8236 15.02529324119162
